[{"OBJECT_NAME":"STARLINK-5067","OBJECT_ID":"2023-021AB","EPOCH":"2026-03-09T17:51:18.658080","MEAN_MOTION":14.98330333,"ECCENTRICITY":0.00035802,"INCLINATION":70.0009,"RA_OF_ASC_NODE":184.1529,"ARG_OF_PERICENTER":271.6002,"MEAN_ANOMALY":88.4747,"EPHEMERIS_TYPE":0,"CLASSIFICATION_TYPE":"U","NORAD_CAT_ID":55653,"ELEMENT_SET_NO":999,"REV_AT_EPOCH":16880,"BSTAR":-7.3128139e-5,"MEAN_MOTION_DOT":-9.66e-6,"MEAN_MOTION_DDOT":0},{"OBJECT_NAME":"NOAA 16 DEB","OBJECT_ID":"2000-055HK","EPOCH":"2026-03-09T11:22:55.184448","MEAN_MOTION":14.96713123,"ECCENTRICITY":0.00044813,"INCLINATION":98.9091,"RA_OF_ASC_NODE":257.3123,"ARG_OF_PERICENTER":226.904,"MEAN_ANOMALY":133.1803,"EPHEMERIS_TYPE":0,"CLASSIFICATION_TYPE":"U","NORAD_CAT_ID":41307,"ELEMENT_SET_NO":999,"REV_AT_EPOCH":53055,"BSTAR":0.0073865996,"MEAN_MOTION_DOT":0.00085329,"MEAN_MOTION_DDOT":0}]
